{
    "links": {
        "self": "http://www.neowsapp.com/rest/v1/neo/3667430?api_key=iIulBulltgU6a56xZRHN4H3l9WmuAYTsLGpBGhQ2"
    },
    "id": "3667430",
    "neo_reference_id": "3667430",
    "name": "(2014 GS45)",
    "designation": "2014 GS45",
    "nasa_jpl_url": "http://ssd.jpl.nasa.gov/sbdb.cgi?sstr=3667430",
    "absolute_magnitude_h": 24.4,
    "estimated_diameter": {
        "kilometers": {
            "estimated_diameter_min": 0.0350392641,
            "estimated_diameter_max": 0.0783501764
        },
        "meters": {
            "estimated_diameter_min": 35.0392641108,
            "estimated_diameter_max": 78.3501764334
        },
        "miles": {
            "estimated_diameter_min": 0.0217723826,
            "estimated_diameter_max": 0.0486845275
        },
        "feet": {
            "estimated_diameter_min": 114.9582192654,
            "estimated_diameter_max": 257.0543928497
        }
    },
    "is_potentially_hazardous_asteroid": false,
    "close_approach_data": [
        {
            "close_approach_date": "2014-03-30",
            "close_approach_date_full": "2014-Mar-30 19:17",
            "epoch_date_close_approach": 1396207020000,
            "relative_velocity": {
                "kilometers_per_second": "7.2969840069",
                "kilometers_per_hour": "26269.1424248206",
                "miles_per_hour": "16322.6235250226"
            },
            "miss_distance": {
                "astronomical": "0.0818265286",
                "lunar": "31.8305196254",
                "kilometers": "12241074.388054082",
                "miles": "7606250.9181950516"
            },
            "orbiting_body": "Earth"
        }
    ],
    "orbital_data": {
        "orbit_id": "9",
        "orbit_determination_date": "2017-04-06 08:41:36",
        "first_observation_date": "2014-04-08",
        "last_observation_date": "2014-05-04",
        "data_arc_in_days": 26,
        "observations_used": 36,
        "orbit_uncertainty": "7",
        "minimum_orbit_intersection": ".0817538",
        "jupiter_tisserand_invariant": "3.655",
        "epoch_osculation": "2459000.5",
        "eccentricity": ".4671323935761361",
        "semi_major_axis": "2.027211755173568",
        "inclination": "9.569655011188907",
        "ascending_node_longitude": "186.8397860346169",
        "orbital_period": "1054.258474466708",
        "perihelion_distance": "1.080235475693659",
        "perihelion_argument": "4.227971817187674",
        "aphelion_distance": "2.974188034653477",
        "perihelion_time": "2458856.534889591371",
        "mean_anomaly": "49.1600883486597",
        "mean_motion": ".341472237329754",
        "equinox": "J2000",
        "orbit_class": {
            "orbit_class_type": "AMO",
            "orbit_class_description": "Near-Earth asteroid orbits similar to that of 1221 Amor",
            "orbit_class_range": "1.017 AU < q (perihelion) < 1.3 AU"
        }
    },
    "is_sentry_object": false
}